{
  "type": "FeatureCollection",
  "features": [
    {
      "type": "Feature",
      "properties": {
        "norad_id": 29930,
        "name": "FENGYUN 1C DEB",
        "group": "fengyun-1c-debris",
        "lat": -9.067778056866759,
        "lon": 41.79731923092731,
        "alt_km": 883.8066237334624,
        "timestamp": "2025-12-07T03:52:32.769369+00:00",
        "meta_object_name": "FENGYUN 1C DEB",
        "meta_object_id": "1999-025JC",
        "meta_epoch": "2025-12-06T15:25:26.040000",
        "meta_mean_motion": 14.20806627,
        "meta_eccentricity": 0.0164629,
        "meta_inclination": 99.0446,
        "meta_ra_of_asc_node": 222.723,
        "meta_arg_of_pericenter": 70.8943,
        "meta_mean_anomaly": 344.2483,
        "meta_ephemeris_type": 0,
        "meta_classification_type": "U",
        "meta_norad_cat_id": 29930,
        "meta_element_set_no": 999,
        "meta_rev_at_epoch": 97804,
        "meta_bstar": 0.00041954574,
        "meta_mean_motion_dot": 9.93e-06,
        "meta_mean_motion_ddot": 0,
        "tle_line1": "1 29930U 99025JC  25340.64266250  .00000993  00000+0  41955-3 0  9990",
        "tle_line2": "2 29930  99.0446 222.7230 0164629  70.8943 344.2483 14.20806627978046"
      },
      "geometry": {
        "type": "Point",
        "coordinates": [
          41.79731923092731,
          -9.067778056866759
        ]
      }
    },
    {
      "type": "Feature",
      "properties": {
        "norad_id": 29931,
        "name": "FENGYUN 1C DEB",
        "group": "fengyun-1c-debris",
        "lat": 10.882071283748957,
        "lon": -161.67031263555157,
        "alt_km": 869.8886461059656,
        "timestamp": "2025-12-07T03:52:32.769379+00:00",
        "meta_object_name": "FENGYUN 1C DEB",
        "meta_object_id": "1999-025JD",
        "meta_epoch": "2025-12-06T13:58:03.656064",
        "meta_mean_motion": 14.03888407,
        "meta_eccentricity": 0.00326712,
        "meta_inclination": 98.8602,
        "meta_ra_of_asc_node": 16.0465,
        "meta_arg_of_pericenter": 110.2699,
        "meta_mean_anomaly": 11.0853,
        "meta_ephemeris_type": 0,
        "meta_classification_type": "U",
        "meta_norad_cat_id": 29931,
        "meta_element_set_no": 999,
        "meta_rev_at_epoch": 96726,
        "meta_bstar": 0.00017996409,
        "meta_mean_motion_dot": 2.42e-06,
        "meta_mean_motion_ddot": 0,
        "tle_line1": "1 29931U 99025JD  25340.58198676  .00000242  00000+0  17996-3 0  9995",
        "tle_line2": "2 29931  98.8602  16.0465 0032671 110.2699  11.0853 14.03888407967269"
      },
      "geometry": {
        "type": "Point",
        "coordinates": [
          -161.67031263555157,
          10.882071283748957
        ]
      }
    },
    {
      "type": "Feature",
      "properties": {
        "norad_id": 29932,
        "name": "FENGYUN 1C DEB",
        "group": "fengyun-1c-debris",
        "lat": 2.4254046012253805,
        "lon": -8.356464631404798,
        "alt_km": 835.649670846844,
        "timestamp": "2025-12-07T03:52:32.769390+00:00",
        "meta_object_name": "FENGYUN 1C DEB",
        "meta_object_id": "1999-025JE",
        "meta_epoch": "2025-12-06T11:39:00.388224",
        "meta_mean_motion": 14.16751854,
        "meta_eccentricity": 0.00386517,
        "meta_inclination": 98.6349,
        "meta_ra_of_asc_node": 351.3562,
        "meta_arg_of_pericenter": 87.9456,
        "meta_mean_anomaly": 68.8437,
        "meta_ephemeris_type": 0,
        "meta_classification_type": "U",
        "meta_norad_cat_id": 29932,
        "meta_element_set_no": 999,
        "meta_rev_at_epoch": 97495,
        "meta_bstar": 0.00049390279,
        "meta_mean_motion_dot": 9.53e-06,
        "meta_mean_motion_ddot": 0,
        "tle_line1": "1 29932U 99025JE  25340.48542116  .00000953  00000+0  49390-3 0  9999",
        "tle_line2": "2 29932  98.6349 351.3562 0038651  87.9456  68.8437 14.16751854974955"
      },
      "geometry": {
        "type": "Point",
        "coordinates": [
          -8.356464631404798,
          2.4254046012253805
        ]
      }
    },
    {
      "type": "Feature",
      "properties": {
        "norad_id": 29933,
        "name": "FENGYUN 1C DEB",
        "group": "fengyun-1c-debris",
        "lat": -0.12287831218559297,
        "lon": -96.01688552097163,
        "alt_km": 680.8921612297618,
        "timestamp": "2025-12-07T03:52:32.769401+00:00",
        "meta_object_name": "FENGYUN 1C DEB",
        "meta_object_id": "1999-025JF",
        "meta_epoch": "2025-12-06T12:54:43.634592",
        "meta_mean_motion": 14.65534819,
        "meta_eccentricity": 0.00038199,
        "meta_inclination": 98.7501,
        "meta_ra_of_asc_node": 83.3386,
        "meta_arg_of_pericenter": 354.4571,
        "meta_mean_anomaly": 137.9748,
        "meta_ephemeris_type": 0,
        "meta_classification_type": "U",
        "meta_norad_cat_id": 29933,
        "meta_element_set_no": 999,
        "meta_rev_at_epoch": 98414,
        "meta_bstar": 0.0061574322,
        "meta_mean_motion_dot": 0.00033501,
        "meta_mean_motion_ddot": 0,
        "tle_line1": "1 29933U 99025JF  25340.53800503  .00033501  00000+0  61574-2 0  9995",
        "tle_line2": "2 29933  98.7501  83.3386 0003819 354.4571 137.9748 14.65534819984140"
      },
      "geometry": {
        "type": "Point",
        "coordinates": [
          -96.01688552097163,
          -0.12287831218559297
        ]
      }
    },
    {
      "type": "Feature",
      "properties": {
        "norad_id": 29934,
        "name": "FENGYUN 1C DEB",
        "group": "fengyun-1c-debris",
        "lat": 30.93873740457732,
        "lon": -147.02561870084085,
        "alt_km": 715.5894837871756,
        "timestamp": "2025-12-07T03:52:32.769411+00:00",
        "meta_object_name": "FENGYUN 1C DEB",
        "meta_object_id": "1999-025JG",
        "meta_epoch": "2025-12-06T09:08:33.482112",
        "meta_mean_motion": 14.63698336,
        "meta_eccentricity": 0.0100609,
        "meta_inclination": 98.9043,
        "meta_ra_of_asc_node": 26.7394,
        "meta_arg_of_pericenter": 271.9621,
        "meta_mean_anomaly": 87.0059,
        "meta_ephemeris_type": 0,
        "meta_classification_type": "U",
        "meta_norad_cat_id": 29934,
        "meta_element_set_no": 999,
        "meta_rev_at_epoch": 99679,
        "meta_bstar": 0.0015171709,
        "meta_mean_motion_dot": 8.447e-05,
        "meta_mean_motion_ddot": 0,
        "tle_line1": "1 29934U 99025JG  25340.38094308  .00008447  00000+0  15172-2 0  9991",
        "tle_line2": "2 29934  98.9043  26.7394 0100609 271.9621  87.0059 14.63698336996795"
      },
      "geometry": {
        "type": "Point",
        "coordinates": [
          -147.02561870084085,
          30.93873740457732
        ]
      }
    },
    {
      "type": "Feature",
      "properties": {
        "norad_id": 29935,
        "name": "FENGYUN 1C DEB",
        "group": "fengyun-1c-debris",
        "lat": -6.474199449957539,
        "lon": -137.31635306521287,
        "alt_km": 772.3268108749362,
        "timestamp": "2025-12-07T03:52:32.769422+00:00",
        "meta_object_name": "FENGYUN 1C DEB",
        "meta_object_id": "1999-025JH",
        "meta_epoch": "2025-12-06T15:50:15.841248",
        "meta_mean_motion": 14.14233775,
        "meta_eccentricity": 0.01499075,
        "meta_inclination": 98.4622,
        "meta_ra_of_asc_node": 43.1763,
        "meta_arg_of_pericenter": 233.6808,
        "meta_mean_anomaly": 281.7206,
        "meta_ephemeris_type": 0,
        "meta_classification_type": "U",
        "meta_norad_cat_id": 29935,
        "meta_element_set_no": 999,
        "meta_rev_at_epoch": 97456,
        "meta_bstar": 0.00024267909,
        "meta_mean_motion_dot": 4.74e-06,
        "meta_mean_motion_ddot": 0,
        "tle_line1": "1 29935U 99025JH  25340.65990557  .00000474  00000+0  24268-3 0  9992",
        "tle_line2": "2 29935  98.4622  43.1763 0149907 233.6808 281.7206 14.14233775974569"
      },
      "geometry": {
        "type": "Point",
        "coordinates": [
          -137.31635306521287,
          -6.474199449957539
        ]
      }
    },
    {
      "type": "Feature",
      "properties": {
        "norad_id": 29936,
        "name": "FENGYUN 1C DEB",
        "group": "fengyun-1c-debris",
        "lat": 16.443968328523923,
        "lon": -82.89972873240238,
        "alt_km": 712.2567738211928,
        "timestamp": "2025-12-07T03:52:32.769432+00:00",
        "meta_object_name": "FENGYUN 1C DEB",
        "meta_object_id": "1999-025JJ",
        "meta_epoch": "2025-12-06T13:43:35.292864",
        "meta_mean_motion": 14.35299082,
        "meta_eccentricity": 0.01136801,
        "meta_inclination": 98.6562,
        "meta_ra_of_asc_node": 93.9319,
        "meta_arg_of_pericenter": 205.3157,
        "meta_mean_anomaly": 154.2432,
        "meta_ephemeris_type": 0,
        "meta_classification_type": "U",
        "meta_norad_cat_id": 29936,
        "meta_element_set_no": 999,
        "meta_rev_at_epoch": 98842,
        "meta_bstar": 0.00040260087,
        "meta_mean_motion_dot": 1.194e-05,
        "meta_mean_motion_ddot": 0,
        "tle_line1": "1 29936U 99025JJ  25340.57193626  .00001194  00000+0  40260-3 0  9996",
        "tle_line2": "2 29936  98.6562  93.9319 0113680 205.3157 154.2432 14.35299082988428"
      },
      "geometry": {
        "type": "Point",
        "coordinates": [
          -82.89972873240238,
          16.443968328523923
        ]
      }
    }
  ]
}